[{"OBJECT_NAME":"LEMUR-2-AMANDA-SVANTE","OBJECT_ID":"2021-034B","EPOCH":"2026-03-09T18:37:58.823328","MEAN_MOTION":15.28469003,"ECCENTRICITY":0.00027027,"INCLINATION":97.5829,"RA_OF_ASC_NODE":144.8625,"ARG_OF_PERICENTER":205.4721,"MEAN_ANOMALY":154.6385,"EPHEMERIS_TYPE":0,"CLASSIFICATION_TYPE":"U","NORAD_CAT_ID":48269,"ELEMENT_SET_NO":999,"REV_AT_EPOCH":26584,"BSTAR":0.0011134246,"MEAN_MOTION_DOT":0.00030872,"MEAN_MOTION_DDOT":0},{"OBJECT_NAME":"STARLINK-35400","OBJECT_ID":"2025-253Q","EPOCH":"2026-03-09T10:56:57.687072","MEAN_MOTION":15.27626543,"ECCENTRICITY":0.00048764,"INCLINATION":43.0025,"RA_OF_ASC_NODE":214.2678,"ARG_OF_PERICENTER":154.7515,"MEAN_ANOMALY":205.3576,"EPHEMERIS_TYPE":0,"CLASSIFICATION_TYPE":"U","NORAD_CAT_ID":66333,"ELEMENT_SET_NO":999,"REV_AT_EPOCH":2020,"BSTAR":0.0010820894,"MEAN_MOTION_DOT":0.00029684,"MEAN_MOTION_DDOT":0}]
